[{"OBJECT_NAME":"UTMN 2 (RS27S)","OBJECT_ID":"2023-091AP","EPOCH":"2026-03-09T23:09:07.917408","MEAN_MOTION":15.29495965,"ECCENTRICITY":0.00097379,"INCLINATION":97.5194,"RA_OF_ASC_NODE":134.949,"ARG_OF_PERICENTER":76.0788,"MEAN_ANOMALY":284.1534,"EPHEMERIS_TYPE":0,"CLASSIFICATION_TYPE":"U","NORAD_CAT_ID":57203,"ELEMENT_SET_NO":999,"REV_AT_EPOCH":14936,"BSTAR":0.00056135701,"MEAN_MOTION_DOT":0.00016013,"MEAN_MOTION_DDOT":0},{"OBJECT_NAME":"STARLINK-31960","OBJECT_ID":"2024-106K","EPOCH":"2026-03-09T02:07:36.088032","MEAN_MOTION":15.2757336,"ECCENTRICITY":8.434e-5,"INCLINATION":42.9992,"RA_OF_ASC_NODE":335.6842,"ARG_OF_PERICENTER":285.8018,"MEAN_ANOMALY":74.274,"EPHEMERIS_TYPE":0,"CLASSIFICATION_TYPE":"U","NORAD_CAT_ID":59931,"ELEMENT_SET_NO":999,"REV_AT_EPOCH":10043,"BSTAR":-0.00012579596,"MEAN_MOTION_DOT":-3.721e-5,"MEAN_MOTION_DDOT":0}]
